{"type":"FeatureCollection","licence":"Data © OpenStreetMap contributors, ODbL 1.0. http://osm.org/copyright","features":[{"type":"Feature","properties":{"place_id":244780829,"osm_type":"way","osm_id":294497219,"place_rank":25,"category":"boundary","type":"national_park","importance":0.311877314681546,"addresstype":"national_park","name":"खप्तड राष्ट्रिय निकुञ्‍ज","display_name":"खप्तड राष्ट्रिय निकुञ्‍ज, डोटी, सुदूरपश्चिम प्रदेश, नेपाल"},"bbox":[80.9904175,29.2776413,81.2311630,29.4633274],"geometry":{"type":"Polygon","coordinates":[[[80.9904175,29.4088116],[80.9907608,29.4065228],[80.9914246,29.4059505],[80.9924088,29.4056702],[80.993721,29.4053879],[80.9950333,29.4051056],[80.9963379,29.4051113],[80.9973221,29.4051189],[80.9992905,29.4048481],[81.000267,29.4051342],[81.0015793,29.4054279],[81.0025558,29.4060116],[81.0035324,29.4065876],[81.004837,29.4077454],[81.0058136,29.4083195],[81.0064621,29.4088974],[81.0074387,29.4094734],[81.0084152,29.4103451],[81.0093918,29.4112091],[81.0106964,29.4117889],[81.0126572,29.4123726],[81.0149536,29.412674],[81.0162582,29.4129677],[81.0175629,29.4132595],[81.0185471,29.4132595],[81.0208435,29.4127064],[81.0215073,29.4118443],[81.0211945,29.41012],[81.0212021,29.409256],[81.0208817,29.4078197],[81.0202408,29.4063873],[81.0199203,29.4055271],[81.0195999,29.4038029],[81.0196152,29.4026508],[81.0192947,29.4012146],[81.0193024,29.4000721],[81.0193253,29.3969135],[81.0193481,29.394619],[81.0190277,29.3928947],[81.0187149,29.3914585],[81.0183945,29.3900223],[81.0184174,29.3877277],[81.0190887,29.3851471],[81.0197601,29.3834324],[81.0204163,29.3822918],[81.0217285,29.3820076],[81.0230408,29.3817253],[81.0246811,29.3820229],[81.0266418,29.3820305],[81.0286026,29.3823261],[81.0312271,29.3823452],[81.0338364,29.3829308],[81.0364609,29.3832283],[81.0380936,29.3835258],[81.040062,29.3832455],[81.0407181,29.3826809],[81.0410538,29.3815346],[81.040741,29.3798103],[81.0400925,29.3789444],[81.039444,29.3780785],[81.0387955,29.3772221],[81.0384827,29.3752098],[81.0378342,29.3737659],[81.0375137,29.3726177],[81.037529,29.3711872],[81.0378647,29.3694649],[81.038208,29.3677444],[81.0382156,29.36689],[81.0385513,29.3657436],[81.038559,29.3643036],[81.0385666,29.3631611],[81.0385742,29.362009],[81.0385818,29.3608665],[81.0385895,29.3597145],[81.0389328,29.3582802],[81.0402527,29.3565674],[81.0422287,29.3554306],[81.0432129,29.3545742],[81.0442047,29.3528557],[81.0435638,29.3511353],[81.0429153,29.3502674],[81.0419388,29.3494053],[81.0412903,29.3485394],[81.0406418,29.3476734],[81.0409775,29.3465271],[81.0409851,29.3456726],[81.0416565,29.34338],[81.0419922,29.3425217],[81.0426559,29.3410854],[81.0436478,29.339653],[81.04496,29.3390903],[81.0462723,29.3388081],[81.0479126,29.3388176],[81.0498734,29.3388252],[81.0511856,29.3385506],[81.0524979,29.3382664],[81.0538101,29.3376961],[81.0547867,29.3377037],[81.056427,29.3374252],[81.0580673,29.3368587],[81.0597153,29.3360062],[81.0606918,29.3357258],[81.0616837,29.3348694],[81.0626678,29.3342934],[81.0636597,29.333725],[81.0649719,29.3325863],[81.0659637,29.3308659],[81.0662994,29.3300076],[81.0663071,29.3291531],[81.0659866,29.3279953],[81.0656662,29.3268471],[81.0656738,29.3259926],[81.0660095,29.3248463],[81.0666656,29.3239841],[81.0673294,29.3234196],[81.0683136,29.3231316],[81.0696182,29.3228569],[81.0709305,29.3225727],[81.0725708,29.3220062],[81.073555,29.3217258],[81.0751953,29.3211613],[81.0765076,29.3205891],[81.0774918,29.3200207],[81.078476,29.3197403],[81.0797958,29.318882],[81.080452,29.3180275],[81.0811157,29.3168793],[81.0817719,29.3163128],[81.0827637,29.3154583],[81.0834198,29.3148842],[81.0853958,29.3128834],[81.0863876,29.312027],[81.0880356,29.3103085],[81.0893478,29.3091698],[81.0909958,29.3080292],[81.0932846,29.3074646],[81.095253,29.3071918],[81.0972061,29.3080616],[81.0981903,29.3083477],[81.0994949,29.3092155],[81.1001434,29.3097935],[81.1017685,29.3112335],[81.102417,29.3120995],[81.1030655,29.3126774],[81.1056824,29.3138371],[81.1076431,29.3135548],[81.1089554,29.3132706],[81.1099396,29.3127022],[81.1115799,29.3118477],[81.1122437,29.3112831],[81.1128998,29.310709],[81.1145401,29.3095665],[81.11586,29.3087158],[81.1174927,29.3081493],[81.1188049,29.3078651],[81.1201172,29.3075809],[81.1217575,29.3070145],[81.1227417,29.3067341],[81.1237259,29.3064537],[81.1253662,29.3058872],[81.1266785,29.305603],[81.1279907,29.3050308],[81.1296234,29.3047504],[81.1319199,29.3041859],[81.1329041,29.3039055],[81.1338882,29.3036251],[81.1352005,29.3027649],[81.1365128,29.3022003],[81.137825,29.3016281],[81.1384811,29.3010635],[81.1397934,29.3002033],[81.1407852,29.2990589],[81.141449,29.2979183],[81.1424408,29.2961979],[81.1427689,29.2953377],[81.1434326,29.2939091],[81.1434402,29.293045],[81.1437759,29.2921867],[81.1437836,29.2910347],[81.1441116,29.2901764],[81.1441193,29.2890339],[81.1438065,29.2864456],[81.1444702,29.285593],[81.1447983,29.2847328],[81.145134,29.2835865],[81.1457977,29.2824364],[81.1464539,29.2818718],[81.14711,29.2812977],[81.1490784,29.2804394],[81.1513672,29.2801609],[81.1526794,29.2798862],[81.1536636,29.2798843],[81.1549683,29.2798958],[81.1562805,29.2796116],[81.1572647,29.2793312],[81.1588974,29.2793312],[81.1602097,29.2793427],[81.1611938,29.2790527],[81.1631546,29.2787781],[81.1644669,29.2784939],[81.1667633,29.2776413],[81.1680679,29.2779312],[81.1697006,29.2785168],[81.169693,29.2796593],[81.1700134,29.2810955],[81.1703262,29.2833958],[81.1696625,29.2845364],[81.1686783,29.2859707],[81.1680145,29.2865448],[81.1670303,29.2874012],[81.1660461,29.2882595],[81.1643906,29.2914085],[81.1653671,29.2916946],[81.1666794,29.2919865],[81.167984,29.2922783],[81.1696167,29.2925739],[81.1712494,29.2928715],[81.1722336,29.2931576],[81.175827,29.294323],[81.1784363,29.2957687],[81.1803894,29.2966366],[81.1810455,29.2972069],[81.1823502,29.2980728],[81.1833267,29.2989445],[81.1833191,29.299799],[81.1813507,29.3006573],[81.1797104,29.3017921],[81.1800308,29.3026619],[81.1810074,29.303524],[81.1816559,29.30439],[81.1819763,29.3052502],[81.1826248,29.3061066],[81.1832733,29.3075485],[81.1839142,29.310421],[81.1845551,29.3127174],[81.185524,29.3153076],[81.1855087,29.3173141],[81.184845,29.3184547],[81.184845,29.3193188],[81.1851654,29.320179],[81.1858139,29.3216209],[81.1864624,29.3227654],[81.1867828,29.3239136],[81.1864471,29.3250599],[81.1861115,29.3259182],[81.1851273,29.3267765],[81.1841431,29.3267784],[81.1831665,29.3267708],[81.1811981,29.326767],[81.1798935,29.3264751],[81.1785889,29.3258953],[81.1776047,29.3253136],[81.175972,29.3247375],[81.1749954,29.3244419],[81.1733551,29.3241539],[81.1723785,29.3241482],[81.1717224,29.3247223],[81.1713867,29.3255806],[81.1713791,29.3264446],[81.1713715,29.3278751],[81.1713638,29.3290272],[81.1716843,29.3313198],[81.1719971,29.332756],[81.1729736,29.3339062],[81.1736221,29.3344822],[81.1746063,29.3347778],[81.1759109,29.3350697],[81.1772232,29.3356495],[81.1788559,29.3359356],[81.1798325,29.3362312],[81.1811447,29.336235],[81.1834335,29.3362446],[81.1844177,29.3362522],[81.186058,29.3359623],[81.1873627,29.3362541],[81.1896515,29.3365517],[81.1909637,29.3368435],[81.1925964,29.337429],[81.193573,29.3374252],[81.1949419,29.3374332],[81.1952133,29.3374348],[81.1965256,29.3371487],[81.198022,29.3368946],[81.1981659,29.3368702],[81.1991425,29.3365879],[81.1998957,29.3363733],[81.2001266,29.3363075],[81.201767,29.3360271],[81.2026359,29.3360254],[81.2027512,29.3360252],[81.2029548,29.3361029],[81.2033376,29.336249],[81.2048607,29.3368304],[81.20504,29.3368988],[81.2053604,29.337759],[81.2053528,29.3391914],[81.2056656,29.3409157],[81.205658,29.3423557],[81.2059784,29.343504],[81.2066269,29.3449364],[81.2066193,29.3460884],[81.2066193,29.3472309],[81.2059555,29.348381],[81.2056198,29.3492393],[81.2046356,29.3503857],[81.2036514,29.350666],[81.2026672,29.3506603],[81.201355,29.3509445],[81.2003708,29.3509369],[81.1993942,29.3506527],[81.19841,29.3506451],[81.1961212,29.3506355],[81.1941605,29.3503418],[81.1928482,29.3503399],[81.191864,29.3506203],[81.1902237,29.3514767],[81.1892395,29.351757],[81.1885834,29.3523312],[81.1879196,29.3529053],[81.1872635,29.3534718],[81.1865997,29.3549099],[81.1872482,29.3557758],[81.1882248,29.356636],[81.1898575,29.3575001],[81.1908417,29.3577957],[81.1921387,29.35923],[81.192131,29.3609581],[81.1917877,29.3635349],[81.1921082,29.3649712],[81.1924286,29.3658314],[81.192749,29.3669796],[81.1933975,29.3681335],[81.194046,29.3692875],[81.1943665,29.3710022],[81.1946869,29.3721504],[81.1946793,29.3733025],[81.1953278,29.3741684],[81.1963043,29.3750305],[81.1959763,29.3761768],[81.1949844,29.3773212],[81.1943207,29.3781757],[81.1936646,29.3793259],[81.1936569,29.3801899],[81.1949615,29.3810482],[81.1965942,29.3819199],[81.1972427,29.3824978],[81.1978989,29.3830662],[81.1992035,29.383934],[81.199852,29.3845119],[81.2008362,29.3850937],[81.2021408,29.3856735],[81.2031174,29.3862476],[81.2050781,29.3871155],[81.2067108,29.3879795],[81.2083435,29.3891392],[81.2106323,29.3902931],[81.2116089,29.3908672],[81.2125854,29.391737],[81.2138901,29.3923168],[81.2145462,29.3931732],[81.2158432,29.3954811],[81.2161636,29.3963413],[81.2171402,29.3977776],[81.2181168,29.3992157],[81.2190933,29.4003658],[81.2203903,29.4018097],[81.2213669,29.4026699],[81.2226715,29.4035378],[81.2236557,29.4041119],[81.2249603,29.4046898],[81.226593,29.4055634],[81.2282333,29.4061375],[81.2301865,29.4072933],[81.231163,29.4087315],[81.2305069,29.409586],[81.2295151,29.4107304],[81.2285309,29.4115887],[81.227211,29.4121609],[81.2255707,29.4127293],[81.2239304,29.4132977],[81.22229,29.4135761],[81.2196655,29.4141464],[81.2154083,29.4144115],[81.2127838,29.4144058],[81.2108231,29.4144001],[81.2088547,29.4146748],[81.2068863,29.415247],[81.2045898,29.4158115],[81.2029495,29.4160919],[81.200325,29.4160767],[81.1983643,29.4163589],[81.1967239,29.4166393],[81.1947556,29.4166336],[81.1921387,29.4163399],[81.1901703,29.4160366],[81.1888657,29.4151783],[81.1875687,29.4137363],[81.186264,29.4125805],[81.1846313,29.4114285],[81.1833267,29.4105606],[81.1820145,29.4102707],[81.1797256,29.4099712],[81.1767807,29.4093914],[81.1744843,29.4093819],[81.1725235,29.4090881],[81.1708908,29.4087925],[81.1689224,29.4084988],[81.1672897,29.4084892],[81.1640091,29.4090481],[81.1610565,29.4093227],[81.1587601,29.4095993],[81.1567993,29.4098835],[81.1545029,29.4098721],[81.1522141,29.4092941],[81.1499252,29.4084187],[81.1479645,29.4078369],[81.1463318,29.4072609],[81.144043,29.4069633],[81.1427231,29.407526],[81.1417389,29.4078159],[81.1384583,29.4092369],[81.1374664,29.4098053],[81.1361542,29.410368],[81.1348419,29.4112282],[81.1338577,29.4115086],[81.1322098,29.4123631],[81.1308975,29.4132137],[81.1289215,29.4146481],[81.1272736,29.415781],[81.1259537,29.4172173],[81.1246338,29.418644],[81.1233215,29.4200726],[81.1228052,29.42037],[81.1203613,29.4217777],[81.1180573,29.4226284],[81.1154327,29.4237633],[81.1144409,29.4246197],[81.113121,29.4260559],[81.1127853,29.4272022],[81.1121216,29.4292068],[81.1117859,29.4300652],[81.1117783,29.4314957],[81.1120911,29.4337959],[81.1124039,29.4352322],[81.1130524,29.4360981],[81.1137085,29.4366684],[81.1146851,29.437252],[81.1166458,29.4381218],[81.11763,29.4381199],[81.1189346,29.4384117],[81.1202469,29.4384251],[81.1222076,29.4390068],[81.1244965,29.4395847],[81.1258087,29.4401646],[81.1267776,29.4416027],[81.1261139,29.4427528],[81.1254578,29.4433193],[81.1244659,29.4441738],[81.1234818,29.4456081],[81.1228104,29.4467564],[81.1214981,29.447607],[81.1205063,29.4484634],[81.1195297,29.4484577],[81.1178894,29.4478798],[81.1162567,29.4470158],[81.114296,29.4467125],[81.1126556,29.4470005],[81.1113434,29.4472752],[81.1103592,29.4472752],[81.1097031,29.4478416],[81.1087036,29.4495602],[81.108696,29.4504242],[81.1093521,29.4512825],[81.1103287,29.4515781],[81.1113129,29.4518642],[81.1129532,29.4518738],[81.1145859,29.4521713],[81.1162186,29.4527473],[81.1168747,29.4533253],[81.1171951,29.4541855],[81.1171875,29.4553375],[81.1165237,29.456768],[81.1165161,29.4576302],[81.1161804,29.4593525],[81.1158371,29.4604988],[81.115181,29.4610634],[81.1141968,29.4616337],[81.113205,29.4622002],[81.1115646,29.4630547],[81.1105804,29.4630566],[81.1089401,29.463047],[81.1079559,29.4633274],[81.1066437,29.4633236],[81.105011,29.4633141],[81.1036987,29.4633083],[81.1007462,29.463007],[81.0987854,29.4627132],[81.096817,29.4624176],[81.0951843,29.4621201],[81.0932159,29.4621124],[81.0899429,29.4618149],[81.0883026,29.4618053],[81.0863342,29.4617977],[81.0837173,29.4614925],[81.0824127,29.4611988],[81.0807724,29.4606228],[81.0804596,29.4586105],[81.0807953,29.4574642],[81.0817871,29.4560318],[81.0824509,29.4554672],[81.0844269,29.4543228],[81.086731,29.4529037],[81.0873871,29.4523296],[81.0883789,29.4511871],[81.0890427,29.4503345],[81.0887222,29.4491844],[81.0877457,29.4483128],[81.0870895,29.4477444],[81.0857849,29.4471645],[81.0841522,29.446291],[81.0828476,29.4459972],[81.0808792,29.4454155],[81.0795746,29.4454117],[81.0775986,29.4462585],[81.0766144,29.4465389],[81.0752945,29.4473972],[81.0743103,29.4476776],[81.0733261,29.448246],[81.0707016,29.4488125],[81.067749,29.4487991],[81.0648041,29.4487839],[81.0628357,29.4487762],[81.0598907,29.448473],[81.0572739,29.4475994],[81.0569534,29.4467316],[81.0566406,29.445015],[81.0546799,29.4441452],[81.0533676,29.4441395],[81.0523834,29.4441319],[81.0507431,29.4444084],[81.0494308,29.4446926],[81.0474625,29.4449635],[81.0448456,29.4449539],[81.0425568,29.4446545],[81.0412445,29.4440727],[81.0396118,29.4437828],[81.0382996,29.4440575],[81.0373154,29.4440594],[81.0360031,29.4440536],[81.0343704,29.4440441],[81.032074,29.4440308],[81.0310898,29.4440212],[81.0294571,29.4440193],[81.0281372,29.444294],[81.0268326,29.4442883],[81.0248642,29.4442806],[81.0232239,29.4442711],[81.0222473,29.4442635],[81.0202789,29.4442558],[81.0186386,29.4442444],[81.0156937,29.4442291],[81.0143814,29.4439354],[81.0134048,29.4436474],[81.0120926,29.4436436],[81.0111084,29.443634],[81.0094681,29.4439106],[81.0084839,29.444191],[81.0078278,29.4447651],[81.0058517,29.4453316],[81.0042191,29.445034],[81.0025864,29.4444466],[81.0016022,29.4441586],[81.0006256,29.4435844],[80.9999771,29.4430046],[80.9993286,29.4424267],[80.9983521,29.441555],[80.9977036,29.4406967],[80.9960861,29.4378166],[80.9957657,29.4363804],[80.9951248,29.4352341],[80.9944763,29.4340801],[80.9938354,29.4326382],[80.993187,29.4312038],[80.9925537,29.4289074],[80.9925553,29.4287306],[80.9925591,29.4283003],[80.992569,29.4271793],[80.9925766,29.4257488],[80.9927047,29.4250148],[80.9925842,29.4246063],[80.9925995,29.4231682],[80.9927256,29.4227349],[80.9926071,29.4220238],[80.9929504,29.4203033],[80.9929657,29.4180088],[80.993309,29.4159985],[80.9929962,29.4145622],[80.9923477,29.4128418],[80.9917068,29.4116879],[80.9913864,29.4108276],[80.9907379,29.4096718],[80.9904175,29.4088116]]]}}]}